CCSDS_OMM_VERS = 2.0
CREATION_DATE  = 
ORIGINATOR     = 

OBJECT_NAME    = RSP-03
OBJECT_ID      = 1998-067XL
CENTER_NAME    = EARTH
REF_FRAME      = TEME
TIME_SYSTEM    = UTC
MEAN_ELEMENT_THEORY = SGP/SGP4

EPOCH          = 2026-02-06T11:27:28.011456
MEAN_MOTION    = 15.99073039
ECCENTRICITY   = .00064023
INCLINATION    = 51.6169
RA_OF_ASC_NODE = 207.8627
ARG_OF_PERICENTER = 281.6300
MEAN_ANOMALY   = 78.3991

EPHEMERIS_TYPE = 0
CLASSIFICATION_TYPE = U
NORAD_CAT_ID   = 65732
ELEMENT_SET_NO = 999
REV_AT_EPOCH   = 2197
BSTAR          = .14925247E-2
MEAN_MOTION_DOT = .742174E-2
MEAN_MOTION_DDOT = .25961849E-3

CCSDS_OMM_VERS = 2.0
CREATION_DATE  = 
ORIGINATOR     = 

OBJECT_NAME    = YOTSUBA-KULOVER
OBJECT_ID      = 1998-067XN
CENTER_NAME    = EARTH
REF_FRAME      = TEME
TIME_SYSTEM    = UTC
MEAN_ELEMENT_THEORY = SGP/SGP4

EPOCH          = 2026-02-06T14:43:07.658976
MEAN_MOTION    = 15.70347368
ECCENTRICITY   = .00039821
INCLINATION    = 51.6243
RA_OF_ASC_NODE = 217.1343
ARG_OF_PERICENTER = 238.9577
MEAN_ANOMALY   = 121.1030

EPHEMERIS_TYPE = 0
CLASSIFICATION_TYPE = U
NORAD_CAT_ID   = 65941
ELEMENT_SET_NO = 999
REV_AT_EPOCH   = 1860
BSTAR          = .10927049E-2
MEAN_MOTION_DOT = .137879E-2
MEAN_MOTION_DDOT = 0

CCSDS_OMM_VERS = 2.0
CREATION_DATE  = 
ORIGINATOR     = 

OBJECT_NAME    = BOTAN
OBJECT_ID      = 1998-067XP
CENTER_NAME    = EARTH
REF_FRAME      = TEME
TIME_SYSTEM    = UTC
MEAN_ELEMENT_THEORY = SGP/SGP4

EPOCH          = 2026-02-06T12:08:08.570400
MEAN_MOTION    = 15.83051988
ECCENTRICITY   = .00057594
INCLINATION    = 51.6185
RA_OF_ASC_NODE = 214.1233
ARG_OF_PERICENTER = 263.2850
MEAN_ANOMALY   = 96.7497

EPHEMERIS_TYPE = 0
CLASSIFICATION_TYPE = U
NORAD_CAT_ID   = 65942
ELEMENT_SET_NO = 999
REV_AT_EPOCH   = 1863
BSTAR          = .15696225E-2
MEAN_MOTION_DOT = .357545E-2
MEAN_MOTION_DDOT = 0

CCSDS_OMM_VERS = 2.0
CREATION_DATE  = 
ORIGINATOR     = 

OBJECT_NAME    = E-KAGAKU-1
OBJECT_ID      = 1998-067XQ
CENTER_NAME    = EARTH
REF_FRAME      = TEME
TIME_SYSTEM    = UTC
MEAN_ELEMENT_THEORY = SGP/SGP4

EPOCH          = 2026-02-06T11:40:47.729856
MEAN_MOTION    = 15.70223959
ECCENTRICITY   = .00033361
INCLINATION    = 51.6264
RA_OF_ASC_NODE = 217.7996
ARG_OF_PERICENTER = 254.7502
MEAN_ANOMALY   = 105.3126

EPHEMERIS_TYPE = 0
CLASSIFICATION_TYPE = U
NORAD_CAT_ID   = 65943
ELEMENT_SET_NO = 999
REV_AT_EPOCH   = 1858
BSTAR          = .11286104E-2
MEAN_MOTION_DOT = .141748E-2
MEAN_MOTION_DDOT = 0

CCSDS_OMM_VERS = 2.0
CREATION_DATE  = 
ORIGINATOR     = 

OBJECT_NAME    = HRC MONOBLOCK CAMERA
OBJECT_ID      = 1998-067XR
CENTER_NAME    = EARTH
REF_FRAME      = TEME
TIME_SYSTEM    = UTC
MEAN_ELEMENT_THEORY = SGP/SGP4

EPOCH          = 2026-02-06T12:19:31.874304
MEAN_MOTION    = 15.58994968
ECCENTRICITY   = .00007605
INCLINATION    = 51.6274
RA_OF_ASC_NODE = 222.4800
ARG_OF_PERICENTER = 352.7771
MEAN_ANOMALY   = 7.3210

EPHEMERIS_TYPE = 0
CLASSIFICATION_TYPE = U
NORAD_CAT_ID   = 66052
ELEMENT_SET_NO = 999
REV_AT_EPOCH   = 1752
BSTAR          = .69711472E-3
MEAN_MOTION_DOT = .55176E-3
MEAN_MOTION_DDOT = 0

CCSDS_OMM_VERS = 2.0
CREATION_DATE  = 
ORIGINATOR     = 

OBJECT_NAME    = HTV-X1
OBJECT_ID      = 2025-241A
CENTER_NAME    = EARTH
REF_FRAME      = TEME
TIME_SYSTEM    = UTC
MEAN_ELEMENT_THEORY = SGP/SGP4

EPOCH          = 2026-02-06T12:50:03.926688
MEAN_MOTION    = 15.48439420
ECCENTRICITY   = .00111325
INCLINATION    = 51.6316
RA_OF_ASC_NODE = 226.3678
ARG_OF_PERICENTER = 70.9201
MEAN_ANOMALY   = 289.2992

EPHEMERIS_TYPE = 0
CLASSIFICATION_TYPE = U
NORAD_CAT_ID   = 66174
ELEMENT_SET_NO = 999
REV_AT_EPOCH   = 51
BSTAR          = .22584648E-3
MEAN_MOTION_DOT = .11792E-3
MEAN_MOTION_DDOT = 0

CCSDS_OMM_VERS = 2.0
CREATION_DATE  = 
ORIGINATOR     = 

OBJECT_NAME    = SZ-21 MODULE
OBJECT_ID      = 2025-246C
CENTER_NAME    = EARTH
REF_FRAME      = TEME
TIME_SYSTEM    = UTC
MEAN_ELEMENT_THEORY = SGP/SGP4

EPOCH          = 2026-02-06T08:11:14.106336
MEAN_MOTION    = 15.66184885
ECCENTRICITY   = .00030134
INCLINATION    = 41.4763
RA_OF_ASC_NODE = 35.9805
ARG_OF_PERICENTER = 279.0982
MEAN_ANOMALY   = 80.9518

EPHEMERIS_TYPE = 0
CLASSIFICATION_TYPE = U
NORAD_CAT_ID   = 66515
ELEMENT_SET_NO = 999
REV_AT_EPOCH   = 1315
BSTAR          = .36895415E-3
MEAN_MOTION_DOT = .38963E-3
MEAN_MOTION_DDOT = 0

CCSDS_OMM_VERS = 2.0
CREATION_DATE  = 
ORIGINATOR     = 

OBJECT_NAME    = SHENZHOU-22
OBJECT_ID      = 2025-272A
CENTER_NAME    = EARTH
REF_FRAME      = TEME
TIME_SYSTEM    = UTC
MEAN_ELEMENT_THEORY = SGP/SGP4

EPOCH          = 2026-02-06T11:21:45.182304
MEAN_MOTION    = 15.59287012
ECCENTRICITY   = .00053968
INCLINATION    = 41.4680
RA_OF_ASC_NODE = 37.9008
ARG_OF_PERICENTER = 13.3696
MEAN_ANOMALY   = 346.7284

EPHEMERIS_TYPE = 0
CLASSIFICATION_TYPE = U
NORAD_CAT_ID   = 66645
ELEMENT_SET_NO = 999
REV_AT_EPOCH   = 26764
BSTAR          = .28124092E-3
MEAN_MOTION_DOT = .22506E-3
MEAN_MOTION_DDOT = 0

CCSDS_OMM_VERS = 2.0
CREATION_DATE  = 
ORIGINATOR     = 

OBJECT_NAME    = SOYUZ-MS 28
OBJECT_ID      = 2025-275A
CENTER_NAME    = EARTH
REF_FRAME      = TEME
TIME_SYSTEM    = UTC
MEAN_ELEMENT_THEORY = SGP/SGP4

EPOCH          = 2026-02-06T12:50:03.926688
MEAN_MOTION    = 15.48439420
ECCENTRICITY   = .00111325
INCLINATION    = 51.6316
RA_OF_ASC_NODE = 226.3678
ARG_OF_PERICENTER = 70.9201
MEAN_ANOMALY   = 289.2992

EPHEMERIS_TYPE = 0
CLASSIFICATION_TYPE = U
NORAD_CAT_ID   = 66664
ELEMENT_SET_NO = 999
REV_AT_EPOCH   = 128
BSTAR          = .22584648E-3
MEAN_MOTION_DOT = .11792E-3
MEAN_MOTION_DDOT = 0

CCSDS_OMM_VERS = 2.0
CREATION_DATE  = 
ORIGINATOR     = 

OBJECT_NAME    = DUPLEX
OBJECT_ID      = 1998-067XS
CENTER_NAME    = EARTH
REF_FRAME      = TEME
TIME_SYSTEM    = UTC
MEAN_ELEMENT_THEORY = SGP/SGP4

EPOCH          = 2026-02-06T02:20:46.587552
MEAN_MOTION    = 15.53999571
ECCENTRICITY   = .00014445
INCLINATION    = 51.6285
RA_OF_ASC_NODE = 227.2022
ARG_OF_PERICENTER = 83.5184
MEAN_ANOMALY   = 276.5971

EPHEMERIS_TYPE = 0
CLASSIFICATION_TYPE = U
NORAD_CAT_ID   = 66906
ELEMENT_SET_NO = 999
REV_AT_EPOCH   = 1021
BSTAR          = .62076121E-3
MEAN_MOTION_DOT = .4063E-3
MEAN_MOTION_DDOT = 0

CCSDS_OMM_VERS = 2.0
CREATION_DATE  = 
ORIGINATOR     = 

OBJECT_NAME    = 1998-067XT
OBJECT_ID      = 1998-067XT
CENTER_NAME    = EARTH
REF_FRAME      = TEME
TIME_SYSTEM    = UTC
MEAN_ELEMENT_THEORY = SGP/SGP4

EPOCH          = 2026-02-05T18:39:57.909312
MEAN_MOTION    = 15.60974670
ECCENTRICITY   = .00022119
INCLINATION    = 51.6265
RA_OF_ASC_NODE = 227.3140
ARG_OF_PERICENTER = 199.3308
MEAN_ANOMALY   = 160.7602

EPHEMERIS_TYPE = 0
CLASSIFICATION_TYPE = U
NORAD_CAT_ID   = 66907
ELEMENT_SET_NO = 999
REV_AT_EPOCH   = 1018
BSTAR          = .15033633E-2
MEAN_MOTION_DOT = .130219E-2
MEAN_MOTION_DDOT = 0

CCSDS_OMM_VERS = 2.0
CREATION_DATE  = 
ORIGINATOR     = 

OBJECT_NAME    = 1998-067XU
OBJECT_ID      = 1998-067XU
CENTER_NAME    = EARTH
REF_FRAME      = TEME
TIME_SYSTEM    = UTC
MEAN_ELEMENT_THEORY = SGP/SGP4

EPOCH          = 2026-02-05T18:39:13.062528
MEAN_MOTION    = 15.61013242
ECCENTRICITY   = .00020347
INCLINATION    = 51.6270
RA_OF_ASC_NODE = 227.3086
ARG_OF_PERICENTER = 199.5208
MEAN_ANOMALY   = 160.5708

EPHEMERIS_TYPE = 0
CLASSIFICATION_TYPE = U
NORAD_CAT_ID   = 66908
ELEMENT_SET_NO = 999
REV_AT_EPOCH   = 1018
BSTAR          = .15278063E-2
MEAN_MOTION_DOT = .13258E-2
MEAN_MOTION_DDOT = 0

